{
    "links": {
        "self": "http://www.neowsapp.com/rest/v1/neo/3842947?api_key=iIulBulltgU6a56xZRHN4H3l9WmuAYTsLGpBGhQ2"
    },
    "id": "3842947",
    "neo_reference_id": "3842947",
    "name": "(2019 MJ1)",
    "designation": "2019 MJ1",
    "nasa_jpl_url": "http://ssd.jpl.nasa.gov/sbdb.cgi?sstr=3842947",
    "absolute_magnitude_h": 27.1,
    "estimated_diameter": {
        "kilometers": {
            "estimated_diameter_min": 0.0101054342,
            "estimated_diameter_max": 0.0225964377
        },
        "meters": {
            "estimated_diameter_min": 10.1054341542,
            "estimated_diameter_max": 22.5964377109
        },
        "miles": {
            "estimated_diameter_min": 0.0062792237,
            "estimated_diameter_max": 0.0140407711
        },
        "feet": {
            "estimated_diameter_min": 33.1543125905,
            "estimated_diameter_max": 74.1352966996
        }
    },
    "is_potentially_hazardous_asteroid": false,
    "close_approach_data": [
        {
            "close_approach_date": "2019-06-28",
            "close_approach_date_full": "2019-Jun-28 19:20",
            "epoch_date_close_approach": 1561749600000,
            "relative_velocity": {
                "kilometers_per_second": "9.5812422834",
                "kilometers_per_hour": "34492.4722203017",
                "miles_per_hour": "21432.2808637758"
            },
            "miss_distance": {
                "astronomical": "0.0102768898",
                "lunar": "3.9977101322",
                "kilometers": "1537400.824304726",
                "miles": "955296.5745321788"
            },
            "orbiting_body": "Earth"
        }
    ],
    "orbital_data": {
        "orbit_id": "1",
        "orbit_determination_date": "2019-06-28 09:12:04",
        "first_observation_date": "2019-06-27",
        "last_observation_date": "2019-06-28",
        "data_arc_in_days": 1,
        "observations_used": 57,
        "orbit_uncertainty": "7",
        "minimum_orbit_intersection": ".0105733",
        "jupiter_tisserand_invariant": "3.644",
        "epoch_osculation": "2459000.5",
        "eccentricity": ".4914933797568864",
        "semi_major_axis": "2.01354264176231",
        "inclination": "12.01066676582921",
        "ascending_node_longitude": "96.69334325193711",
        "orbital_period": "1043.613464928112",
        "perihelion_distance": "1.023899763477943",
        "perihelion_argument": "171.9675587805931",
        "aphelion_distance": "3.003185520046677",
        "perihelion_time": "2458656.572486055273",
        "mean_anomaly": "118.6396201093769",
        "mean_motion": ".3449553039494352",
        "equinox": "J2000",
        "orbit_class": {
            "orbit_class_type": "AMO",
            "orbit_class_description": "Near-Earth asteroid orbits similar to that of 1221 Amor",
            "orbit_class_range": "1.017 AU < q (perihelion) < 1.3 AU"
        }
    },
    "is_sentry_object": false
}